$$SOE
2460154.500000000, A.D. 2023-Jul-29 00:00:00.0000, 7.155397548161473E+09, 3.873385795369355E+09, -8.535994417819681E+08,
2460161.500000000, A.D. 2023-Aug-05 00:00:00.0000, 7.153437086315147E+09, 3.874918699089845E+09, -8.533899676329799E+08,
2460168.500000000, A.D. 2023-Aug-12 00:00:00.0000, 7.151475902441398E+09, 3.876451231022648E+09, -8.531804151974168E+08,
2460175.500000000, A.D. 2023-Aug-19 00:00:00.0000, 7.149513994485354E+09, 3.877983388450925E+09, -8.529707843463198E+08,
2460182.500000000, A.D. 2023-Aug-26 00:00:00.0000, 7.147551360697779E+09, 3.879515168259041E+09, -8.527610749748502E+08,
2460189.500000000, A.D. 2023-Sep-02 00:00:00.0000, 7.145587999612800E+09, 3.881046566951254E+09, -8.525512870008730E+08,
2460196.500000000, A.D. 2023-Sep-09 00:00:00.0000, 7.143623910039290E+09, 3.882577580557859E+09, -8.523414203748990E+08,
2460203.500000000, A.D. 2023-Sep-16 00:00:00.0000, 7.141659091234285E+09, 3.884108204370804E+09, -8.521314751215180E+08,
2460210.500000000, A.D. 2023-Sep-23 00:00:00.0000, 7.139693543674870E+09, 3.885638432795539E+09, -8.519214514270126E+08,
2460217.500000000, A.D. 2023-Sep-30 00:00:00.0000, 7.137727270088958E+09, 3.887168260509842E+09, -8.517113496446016E+08,
2460224.500000000, A.D. 2023-Oct-07 00:00:00.0000, 7.135760274391212E+09, 3.888697684386768E+09, -8.515011700456505E+08,
2460231.500000000, A.D. 2023-Oct-14 00:00:00.0000, 7.133792559564041E+09, 3.890226702868589E+09, -8.512909126828331E+08,
2460238.500000000, A.D. 2023-Oct-21 00:00:00.0000, 7.131824127712234E+09, 3.891755314394411E+09, -8.510805775301960E+08,
2460245.500000000, A.D. 2023-Oct-28 00:00:00.0000, 7.129854980866908E+09, 3.893283517141606E+09, -8.508701645845710E+08,
2460252.500000000, A.D. 2023-Nov-04 00:00:00.0000, 7.127885121288716E+09, 3.894811309310677E+09, -8.506596738763618E+08,
2460259.500000000, A.D. 2023-Nov-11 00:00:00.0000, 7.125914551447894E+09, 3.896338689353654E+09, -8.504491054547721E+08,
2460266.500000000, A.D. 2023-Nov-18 00:00:00.0000, 7.123943273900639E+09, 3.897865656081748E+09, -8.502384593725922E+08,
2460273.500000000, A.D. 2023-Nov-25 00:00:00.0000, 7.121971291134648E+09, 3.899392208674776E+09, -8.500277356751652E+08,
2460280.500000000, A.D. 2023-Dec-02 00:00:00.0000, 7.119998605412007E+09, 3.900918346581218E+09, -8.498169343968582E+08,
2460287.500000000, A.D. 2023-Dec-09 00:00:00.0000, 7.118025218687239E+09, 3.902444069249945E+09, -8.496060555768647E+08,
2460294.500000000, A.D. 2023-Dec-16 00:00:00.0000, 7.116051132888082E+09, 3.903969375706205E+09, -8.493950993196620E+08,
2460301.500000000, A.D. 2023-Dec-23 00:00:00.0000, 7.114076350907430E+09, 3.905494264659323E+09, -8.491840658759371E+08,
2460308.500000000, A.D. 2023-Dec-30 00:00:00.0000, 7.112100876966225E+09, 3.907018736191338E+09, -8.489729555354292E+08,
2460315.500000000, A.D. 2024-Jan-06 00:00:00.0000, 7.110124714574849E+09, 3.908542792665896E+09, -8.487617683621982E+08,
2460322.500000000, A.D. 2024-Jan-13 00:00:00.0000, 7.108147865265760E+09, 3.910066437050467E+09, -8.485505042112297E+08,
2460329.500000000, A.D. 2024-Jan-20 00:00:00.0000, 7.106170329320920E+09, 3.911589671736481E+09, -8.483391628867743E+08,
2460336.500000000, A.D. 2024-Jan-27 00:00:00.0000, 7.104192106465293E+09, 3.913112498509575E+09, -8.481277442032894E+08,
2460343.500000000, A.D. 2024-Feb-03 00:00:00.0000, 7.102213196098037E+09, 3.914634918721334E+09, -8.479162479874486E+08,
2460350.500000000, A.D. 2024-Feb-10 00:00:00.0000, 7.100233597338736E+09, 3.916156933371410E+09, -8.477046740706679E+08,
2460357.500000000, A.D. 2024-Feb-17 00:00:00.0000, 7.098253309027395E+09, 3.917678543107942E+09, -8.474930222843958E+08,
2460364.500000000, A.D. 2024-Feb-24 00:00:00.0000, 7.096272329714128E+09, 3.919199748161068E+09, -8.472812924604049E+08,
2460371.500000000, A.D. 2024-Mar-02 00:00:00.0000, 7.094290657667873E+09, 3.920720548177007E+09, -8.470694844415352E+08,
2460378.500000000, A.D. 2024-Mar-09 00:00:00.0000, 7.092308291042966E+09, 3.922240941889866E+09, -8.468575981208478E+08,
2460385.500000000, A.D. 2024-Mar-16 00:00:00.0000, 7.090325228598858E+09, 3.923760926828413E+09, -8.466456335293736E+08,
2460392.500000000, A.D. 2024-Mar-23 00:00:00.0000, 7.088341470869416E+09, 3.925280500166887E+09, -8.464335908723638E+08,
2460399.500000000, A.D. 2024-Mar-30 00:00:00.0000, 7.086357019540645E+09, 3.926799660693039E+09, -8.462214703106848E+08,
2460406.500000000, A.D. 2024-Apr-06 00:00:00.0000, 7.084371875292870E+09, 3.928318408525785E+09, -8.460092717860619E+08,
2460413.500000000, A.D. 2024-Apr-13 00:00:00.0000, 7.082386037658526E+09, 3.929836743418911E+09, -8.457969951475277E+08,
2460420.500000000, A.D. 2024-Apr-20 00:00:00.0000, 7.080399505943387E+09, 3.931354664327472E+09, -8.455846402729919E+08,
2460427.500000000, A.D. 2024-Apr-27 00:00:00.0000, 7.078412279694215E+09, 3.932872169675517E+09, -8.453722070926287E+08,
2460434.500000000, A.D. 2024-May-04 00:00:00.0000, 7.076424358800760E+09, 3.934389257621820E+09, -8.451596955795571E+08,
2460441.500000000, A.D. 2024-May-11 00:00:00.0000, 7.074435743470456E+09, 3.935905926222023E+09, -8.449471057379055E+08,
2460448.500000000, A.D. 2024-May-18 00:00:00.0000, 7.072446434157756E+09, 3.937422173509048E+09, -8.447344375938609E+08,
2460455.500000000, A.D. 2024-May-25 00:00:00.0000, 7.070456431472887E+09, 3.938937997485001E+09, -8.445216911923860E+08,
2460462.500000000, A.D. 2024-Jun-01 00:00:00.0000, 7.068465736129824E+09, 3.940453395967464E+09, -8.443088666095575E+08,
2460469.500000000, A.D. 2024-Jun-08 00:00:00.0000, 7.066474349179857E+09, 3.941968366267513E+09, -8.440959640047605E+08,
2460476.500000000, A.D. 2024-Jun-15 00:00:00.0000, 7.064482272930301E+09, 3.943482905244847E+09, -8.438829837045710E+08,
2460483.500000000, A.D. 2024-Jun-22 00:00:00.0000, 7.062489511543067E+09, 3.944997010915381E+09, -8.436699261298131E+08,
2460490.500000000, A.D. 2024-Jun-29 00:00:00.0000, 7.060496069191536E+09, 3.946510683790729E+09, -8.434567915197486E+08,
2460497.500000000, A.D. 2024-Jul-06 00:00:00.0000, 7.058501948420694E+09, 3.948023925478562E+09, -8.432435798977126E+08,
2460504.500000000, A.D. 2024-Jul-13 00:00:00.0000, 7.056507150659790E+09, 3.949536737368083E+09, -8.430302912260444E+08,
2460511.500000000, A.D. 2024-Jul-20 00:00:00.0000, 7.054511676901868E+09, 3.951049120549319E+09, -8.428169254742172E+08,
2460518.500000000, A.D. 2024-Jul-27 00:00:00.0000, 7.052515527894172E+09, 3.952561076006848E+09, -8.426034826183963E+08,
2460525.500000000, A.D. 2024-Aug-03 00:00:00.0000, 7.050518704112355E+09, 3.954072604713092E+09, -8.423899626281693E+08,
2460532.500000000, A.D. 2024-Aug-10 00:00:00.0000, 7.048521205684280E+09, 3.955583707616919E+09, -8.421763654561632E+08,
2460539.500000000, A.D. 2024-Aug-17 00:00:00.0000, 7.046523032310720E+09, 3.957094385549567E+09, -8.419626910332996E+08,
2460546.500000000, A.D. 2024-Aug-24 00:00:00.0000, 7.044524183210810E+09, 3.958604639025992E+09, -8.417489392743077E+08,
2460553.500000000, A.D. 2024-Aug-31 00:00:00.0000, 7.042524657207859E+09, 3.960114467880526E+09, -8.415351101093791E+08,
2460560.500000000, A.D. 2024-Sep-07 00:00:00.0000, 7.040524453321045E+09, 3.961623870863582E+09, -8.413212035654153E+08,
2460567.500000000, A.D. 2024-Sep-14 00:00:00.0000, 7.038523571948208E+09, 3.963132846195575E+09, -8.411072198235635E+08,
2460574.500000000, A.D. 2024-Sep-21 00:00:00.0000, 7.036522014610929E+09, 3.964641393490857E+09, -8.408931590334378E+08,
2460581.500000000, A.D. 2024-Sep-28 00:00:00.0000, 7.034519781774401E+09, 3.966149513824223E+09, -8.406790211032739E+08,
2460588.500000000, A.D. 2024-Oct-05 00:00:00.0000, 7.032516872411788E+09, 3.967657207941787E+09, -8.404648058026105E+08,
2460595.500000000, A.D. 2024-Oct-12 00:00:00.0000, 7.030513284952451E+09, 3.969164475596429E+09, -8.402505129009709E+08,
2460602.500000000, A.D. 2024-Oct-19 00:00:00.0000, 7.028509017863118E+09, 3.970671315737195E+09, -8.400361422041446E+08,
2460609.500000000, A.D. 2024-Oct-26 00:00:00.0000, 7.026504069829669E+09, 3.972177726751395E+09, -8.398216935505993E+08,
2460616.500000000, A.D. 2024-Nov-02 00:00:00.0000, 7.024498439796952E+09, 3.973683706611279E+09, -8.396071668037491E+08,
2460623.500000000, A.D. 2024-Nov-09 00:00:00.0000, 7.022492126963390E+09, 3.975189252946266E+09, -8.393925618472224E+08,
2460630.500000000, A.D. 2024-Nov-16 00:00:00.0000, 7.020485130756406E+09, 3.976694363041268E+09, -8.391778785854282E+08,
2460637.500000000, A.D. 2024-Nov-23 00:00:00.0000, 7.018477450835771E+09, 3.978199033711522E+09, -8.389631169577433E+08,
2460644.500000000, A.D. 2024-Nov-30 00:00:00.0000, 7.016469087333295E+09, 3.979703261011513E+09, -8.387482769888288E+08,
2460651.500000000, A.D. 2024-Dec-07 00:00:00.0000, 7.014460041748420E+09, 3.981207040198849E+09, -8.385333588790678E+08,
2460658.500000000, A.D. 2024-Dec-14 00:00:00.0000, 7.012450317811140E+09, 3.982710367177230E+09, -8.383183629718252E+08,
2460665.500000000, A.D. 2024-Dec-21 00:00:00.0000, 7.010439919993816E+09, 3.984213240177886E+09, -8.381032894861001E+08,
2460672.500000000, A.D. 2024-Dec-28 00:00:00.0000, 7.008428851644382E+09, 3.985715658712227E+09, -8.378881384378290E+08,
2460679.500000000, A.D. 2025-Jan-04 00:00:00.0000, 7.006417115338209E+09, 3.987217622171970E+09, -8.376729097936536E+08,
2460686.500000000, A.D. 2025-Jan-11 00:00:00.0000, 7.004404713627516E+09, 3.988719129736602E+09, -8.374576035542376E+08,
2460693.500000000, A.D. 2025-Jan-18 00:00:00.0000, 7.002391649271431E+09, 3.990220180669419E+09, -8.372422197578654E+08,
2460700.500000000, A.D. 2025-Jan-25 00:00:00.0000, 7.000377925190408E+09, 3.991720774527606E+09, -8.370267584651622E+08,
2460707.500000000, A.D. 2025-Feb-01 00:00:00.0000, 6.998363544334563E+09, 3.993220911256228E+09, -8.368112197445327E+08,
2460714.500000000, A.D. 2025-Feb-08 00:00:00.0000, 6.996348509524510E+09, 3.994720591185784E+09, -8.365956036618068E+08,
2460721.500000000, A.D. 2025-Feb-15 00:00:00.0000, 6.994332823293570E+09, 3.996219814913332E+09, -8.363799102781792E+08,
$$EOE